{"type": "FeatureCollection", "features": [ {"type": "Feature", "properties": {"norad_id": 31735, "name": "FENGYUN 1C DEB", "group": "fengyun-1c-debris", "lat": 27.74142922041668, "lon": -87.33535279311518, "alt_km": 780.2907321045113, "timestamp": "2025-12-10T18:57:00.349435+00:00", "meta": {"OBJECT_NAME": "FENGYUN 1C DEB", "OBJECT_ID": "1999-025CEJ", "EPOCH": "2025-12-10T01:35:47.952672", "MEAN_MOTION": 14.42531736, "ECCENTRICITY": 0.0058885, "INCLINATION": 98.5803, "RA_OF_ASC_NODE": 87.3829, "ARG_OF_PERICENTER": 292.5292, "MEAN_ANOMALY": 66.9671, "EPHEMERIS_TYPE": 0, "CLASSIFICATION_TYPE": "U", "NORAD_CAT_ID": 31735, "ELEMENT_SET_NO": 999, "REV_AT_EPOCH": 96626, "BSTAR": 0.00060011219, "MEAN_MOTION_DOT": 1.986e-05, "MEAN_MOTION_DDOT": 0}, "tle": {"line1": "1 31735U 99025CEJ 25344.06652723  .00001986  00000+0  60011-3 0  9997", "line2": "2 31735  98.5803  87.3829 0058885 292.5292  66.9671 14.42531736966266"}}, "geometry": {"type": "Point", "coordinates": [-87.33535279311518, 27.74142922041668]}}, {"type": "Feature", "properties": {"norad_id": 31736, "name": "FENGYUN 1C DEB", "group": "fengyun-1c-debris", "lat": 7.257313477849635, "lon": -14.356456530272265, "alt_km": 850.9408739375485, "timestamp": "2025-12-10T18:57:00.349445+00:00", "meta": {"OBJECT_NAME": "FENGYUN 1C DEB", "OBJECT_ID": "1999-025CEK", "EPOCH": "2025-12-07T06:00:46.728576", "MEAN_MOTION": 14.14178475, "ECCENTRICITY": 0.00109922, "INCLINATION": 98.6782, "RA_OF_ASC_NODE": 343.321, "ARG_OF_PERICENTER": 257.8319, "MEAN_ANOMALY": 102.1623, "EPHEMERIS_TYPE": 0, "CLASSIFICATION_TYPE": "U", "NORAD_CAT_ID": 31736, "ELEMENT_SET_NO": 999, "REV_AT_EPOCH": 63987, "BSTAR": 0.00026653832, "MEAN_MOTION_DOT": 4.65e-06, "MEAN_MOTION_DDOT": 0}, "tle": {"line1": "1 31736U 99025CEK 25341.25054084  .00000465  00000+0  26654-3 0  9998", "line2": "2 31736  98.6782 343.3210 0010992 257.8319 102.1623 14.14178475639874"}}, "geometry": {"type": "Point", "coordinates": [-14.356456530272265, 7.257313477849635]}}, {"type": "Feature", "properties": {"norad_id": 31737, "name": "FENGYUN 1C DEB", "group": "fengyun-1c-debris", "lat": -80.07729824968038, "lon": 145.66056379663613, "alt_km": 720.463460271475, "timestamp": "2025-12-10T18:57:00.349455+00:00", "meta": {"OBJECT_NAME": "FENGYUN 1C DEB", "OBJECT_ID": "1999-025CEL", "EPOCH": "2025-12-09T09:05:57.928416", "MEAN_MOTION": 14.68701198, "ECCENTRICITY": 0.014913, "INCLINATION": 97.9175, "RA_OF_ASC_NODE": 16.9987, "ARG_OF_PERICENTER": 26.4033, "MEAN_ANOMALY": 346.082, "EPHEMERIS_TYPE": 0, "CLASSIFICATION_TYPE": "U", "NORAD_CAT_ID": 31737, "ELEMENT_SET_NO": 999, "REV_AT_EPOCH": 98150, "BSTAR": 0.00084960801, "MEAN_MOTION_DOT": 5.81e-05, "MEAN_MOTION_DDOT": 0}, "tle": {"line1": "1 31737U 99025CEL 25343.37914269  .00005810  00000+0  84961-3 0  9998", "line2": "2 31737  97.9175  16.9987 0149130  26.4033 346.0820 14.68701198981508"}}, "geometry": {"type": "Point", "coordinates": [145.66056379663613, -80.07729824968038]}}, {"type": "Feature", "properties": {"norad_id": 31738, "name": "FENGYUN 1C DEB", "group": "fengyun-1c-debris", "lat": 10.571785284078992, "lon": -126.20213459956945, "alt_km": 842.4361394593761, "timestamp": "2025-12-10T18:57:00.349465+00:00", "meta": {"OBJECT_NAME": "FENGYUN 1C DEB", "OBJECT_ID": "1999-025CEM", "EPOCH": "2025-11-17T10:08:15.850752", "MEAN_MOTION": 13.84884182, "ECCENTRICITY": 0.03082109, "INCLINATION": 99.3633, "RA_OF_ASC_NODE": 28.6808, "ARG_OF_PERICENTER": 167.6176, "MEAN_ANOMALY": 193.2777, "EPHEMERIS_TYPE": 0, "CLASSIFICATION_TYPE": "U", "NORAD_CAT_ID": 31738, "ELEMENT_SET_NO": 999, "REV_AT_EPOCH": 61907, "BSTAR": 0.0026324864, "MEAN_MOTION_DOT": 4.259e-05, "MEAN_MOTION_DDOT": 0}, "tle": {"line1": "1 31738U 99025CEM 25321.42240568  .00004259  00000+0  26325-2 0  9990", "line2": "2 31738  99.3633  28.6808 0308210 167.6176 193.2777 13.84884182619073"}}, "geometry": {"type": "Point", "coordinates": [-126.20213459956945, 10.571785284078992]}}, {"type": "Feature", "properties": {"norad_id": 31739, "name": "FENGYUN 1C DEB", "group": "fengyun-1c-debris", "lat": -23.973936657888174, "lon": -143.78025003841026, "alt_km": 879.3908190985085, "timestamp": "2025-12-10T18:57:00.349475+00:00", "meta": {"OBJECT_NAME": "FENGYUN 1C DEB", "OBJECT_ID": "1999-025CEN", "EPOCH": "2025-12-10T09:32:37.755744", "MEAN_MOTION": 14.19216063, "ECCENTRICITY": 0.0128475, "INCLINATION": 98.7479, "RA_OF_ASC_NODE": 39.7589, "ARG_OF_PERICENTER": 84.9112, "MEAN_ANOMALY": 276.6714, "EPHEMERIS_TYPE": 0, "CLASSIFICATION_TYPE": "U", "NORAD_CAT_ID": 31739, "ELEMENT_SET_NO": 999, "REV_AT_EPOCH": 95453, "BSTAR": 0.00014654, "MEAN_MOTION_DOT": 2.91e-06, "MEAN_MOTION_DDOT": 0}, "tle": {"line1": "1 31739U 99025CEN 25344.39765921  .00000291  00000+0  14654-3 0  9992", "line2": "2 31739  98.7479  39.7589 0128475  84.9112 276.6714 14.19216063954534"}}, "geometry": {"type": "Point", "coordinates": [-143.78025003841026, -23.973936657888174]}}, {"type": "Feature", "properties": {"norad_id": 31740, "name": "FENGYUN 1C DEB", "group": "fengyun-1c-debris", "lat": -3.695923894135331, "lon": 156.4760929039314, "alt_km": 751.1621066893786, "timestamp": "2025-12-10T18:57:00.349485+00:00", "meta": {"OBJECT_NAME": "FENGYUN 1C DEB", "OBJECT_ID": "1999-025CEP", "EPOCH": "2025-12-07T23:23:54.081600", "MEAN_MOTION": 14.42100668, "ECCENTRICITY": 0.00243063, "INCLINATION": 99.8211, "RA_OF_ASC_NODE": 152.6005, "ARG_OF_PERICENTER": 82.3936, "MEAN_ANOMALY": 69.7261, "EPHEMERIS_TYPE": 0, "CLASSIFICATION_TYPE": "U", "NORAD_CAT_ID": 31740, "ELEMENT_SET_NO": 999, "REV_AT_EPOCH": 65006, "BSTAR": 0.0018306589, "MEAN_MOTION_DOT": 5.989e-05, "MEAN_MOTION_DDOT": 0}, "tle": {"line1": "1 31740U 99025CEP 25341.97493150  .00005989  00000+0  18307-2 0  9994", "line2": "2 31740  99.8211 152.6005 0024306  82.3936  69.7261 14.42100668650062"}}, "geometry": {"type": "Point", "coordinates": [156.4760929039314, -3.695923894135331]}}, {"type": "Feature", "properties": {"norad_id": 31742, "name": "FENGYUN 1C DEB", "group": "fengyun-1c-debris", "lat": 62.172471008295624, "lon": 41.835679798952874, "alt_km": 795.5808294712342, "timestamp": "2025-12-10T18:57:00.349495+00:00", "meta": {"OBJECT_NAME": "FENGYUN 1C DEB", "OBJECT_ID": "1999-025CER", "EPOCH": "2025-12-10T08:24:18.010080", "MEAN_MOTION": 14.39778728, "ECCENTRICITY": 0.0076669, "INCLINATION": 98.9231, "RA_OF_ASC_NODE": 204.0623, "ARG_OF_PERICENTER": 336.5761, "MEAN_ANOMALY": 23.1939, "EPHEMERIS_TYPE": 0, "CLASSIFICATION_TYPE": "U", "NORAD_CAT_ID": 31742, "ELEMENT_SET_NO": 999, "REV_AT_EPOCH": 96615, "BSTAR": 0.0010459, "MEAN_MOTION_DOT": 3.346e-05, "MEAN_MOTION_DDOT": 0}, "tle": {"line1": "1 31742U 99025CER 25344.35020845  .00003346  00000+0  10459-2 0  9993", "line2": "2 31742  98.9231 204.0623 0076669 336.5761  23.1939 14.39778728966153"}}, "geometry": {"type": "Point", "coordinates": [41.835679798952874, 62.172471008295624]}}, {"type": "Feature", "properties": {"norad_id": 31743, "name": "FENGYUN 1C DEB", "group": "fengyun-1c-debris", "lat": -75.26511725057641, "lon": 54.85405503509589, "alt_km": 772.3999059673306, "timestamp": "2025-12-10T18:57:00.349506+00:00", "meta": {"OBJECT_NAME": "FENGYUN 1C DEB", "OBJECT_ID": "1999-025CES", "EPOCH": "2025-12-10T06:43:02.821728", "MEAN_MOTION": 14.31261876, "ECCENTRICITY": 0.0037389, "INCLINATION": 99.1414, "RA_OF_ASC_NODE": 272.0703, "ARG_OF_PERICENTER": 226.358, "MEAN_ANOMALY": 287.03, "EPHEMERIS_TYPE": 0, "CLASSIFICATION_TYPE": "U", "NORAD_CAT_ID": 31743, "ELEMENT_SET_NO": 999, "REV_AT_EPOCH": 95605, "BSTAR": 0.0025776, "MEAN_MOTION_DOT": 6.827e-05, "MEAN_MOTION_DDOT": 0}, "tle": {"line1": "1 31743U 99025CES 25344.27989377  .00006827  00000+0  25776-2 0  9994", "line2": "2 31743  99.1414 272.0703 0037389 226.3580 287.0300 14.31261876956059"}}, "geometry": {"type": "Point", "coordinates": [54.85405503509589, -75.26511725057641]}}, {"type": "Feature", "properties": {"norad_id": 31744, "name": "FENGYUN 1C DEB", "group": "fengyun-1c-debris", "lat": -47.11472493451727, "lon": 105.8392618039991, "alt_km": 867.9366918920286, "timestamp": "2025-12-10T18:57:00.349516+00:00", "meta": {"OBJECT_NAME": "FENGYUN 1C DEB", "OBJECT_ID": "1999-025CET", "EPOCH": "2025-12-04T13:59:28.410144", "MEAN_MOTION": 14.16423838, "ECCENTRICITY": 0.0316256, "INCLINATION": 99.3063, "RA_OF_ASC_NODE": 89.1727, "ARG_OF_PERICENTER": 67.4972, "MEAN_ANOMALY": 295.9356, "EPHEMERIS_TYPE": 0, "CLASSIFICATION_TYPE": "U", "NORAD_CAT_ID": 31744, "ELEMENT_SET_NO": 999, "REV_AT_EPOCH": 94499, "BSTAR": 0.0032306, "MEAN_MOTION_DOT": 0.00010446, "MEAN_MOTION_DDOT": 0}, "tle": {"line1": "1 31744U 99025CET 25338.58296771  .00010446  00000+0  32306-2 0  9990", "line2": "2 31744  99.3063  89.1727 0316256  67.4972 295.9356 14.16423838944997"}}, "geometry": {"type": "Point", "coordinates": [105.8392618039991, -47.11472493451727]}}, {"type": "Feature", "properties": {"norad_id": 31746, "name": "FENGYUN 1C DEB", "group": "fengyun-1c-debris", "lat": -33.192875314709035, "lon": 112.91675649131894, "alt_km": 653.1703480169626, "timestamp": "2025-12-10T18:57:00.349526+00:00", "meta": {"OBJECT_NAME": "FENGYUN 1C DEB", "OBJECT_ID": "1999-025CEV", "EPOCH": "2025-12-08T13:25:49.648224", "MEAN_MOTION": 14.76434428, "ECCENTRICITY": 0.0023745, "INCLINATION": 98.5888, "RA_OF_ASC_NODE": 104.8721, "ARG_OF_PERICENTER": 218.9091, "MEAN_ANOMALY": 141.0408, "EPHEMERIS_TYPE": 0, "CLASSIFICATION_TYPE": "U", "NORAD_CAT_ID": 31746, "ELEMENT_SET_NO": 999, "REV_AT_EPOCH": 96966, "BSTAR": 0.0049017, "MEAN_MOTION_DOT": 0.00034355, "MEAN_MOTION_DDOT": 0}, "tle": {"line1": "1 31746U 99025CEV 25342.55960241  .00034355  00000+0  49017-2 0  9996", "line2": "2 31746  98.5888 104.8721 0023745 218.9091 141.0408 14.76434428969660"}}, "geometry": {"type": "Point", "coordinates": [112.91675649131894, -33.192875314709035]}}]}